[{"OBJECT_NAME":"ZACUBE-1 (TSHEPISOSAT)","OBJECT_ID":"2013-066B","EPOCH":"2026-03-09T22:19:27.469056","MEAN_MOTION":15.00329659,"ECCENTRICITY":0.00425262,"INCLINATION":97.8171,"RA_OF_ASC_NODE":30.7553,"ARG_OF_PERICENTER":219.1599,"MEAN_ANOMALY":140.6545,"EPHEMERIS_TYPE":0,"CLASSIFICATION_TYPE":"U","NORAD_CAT_ID":39417,"ELEMENT_SET_NO":999,"REV_AT_EPOCH":66584,"BSTAR":0.00042975473,"MEAN_MOTION_DOT":5.431e-5,"MEAN_MOTION_DDOT":0},{"OBJECT_NAME":"STARLINK-5456","OBJECT_ID":"2023-021AR","EPOCH":"2026-03-09T14:20:41.522784","MEAN_MOTION":14.98329684,"ECCENTRICITY":0.0002996,"INCLINATION":70.0012,"RA_OF_ASC_NODE":164.5749,"ARG_OF_PERICENTER":263.0991,"MEAN_ANOMALY":96.9827,"EPHEMERIS_TYPE":0,"CLASSIFICATION_TYPE":"U","NORAD_CAT_ID":55667,"ELEMENT_SET_NO":999,"REV_AT_EPOCH":16927,"BSTAR":-7.6718e-5,"MEAN_MOTION_DOT":-1.008e-5,"MEAN_MOTION_DDOT":0}]
